154P/Brewington,e,17.6292,343.0124,47.8515,4.803925,0.0936073,0.67508098,222.3058,06/05.0/2020,2000,g  2.5,12.0
# From MPC118098
155P/Shoemaker,e,6.3959,97.1979,14.6586,6.586337,0.0583093,0.72643471,11.8369,06/05.0/2020,2000,g 10.0,4.8
# From MPC105242
156P/Russell-LINEAR,e,17.2624,35.3773,0.4054,3.460880,0.1530821,0.61480489,334.6112,06/05.0/2020,2000,g 15.5,2.0
# From MPC104795
157P/Tritton,e,12.9348,287.9240,156.0369,3.498624,0.1506115,0.58059327,237.7903,06/05.0/2020,2000,g 10.0,4.0
# From MPEC 2016-K18
158P/Kowal-LINEAR,e,7.9297,135.8313,195.6296,4.865414,0.0918384,0.01615742,305.6271,06/05.0/2020,2000,g  9.0,4.0
# From MPEC 2020-HN5
159P/LONEOS,e,23.4610,55.0078,4.6325,5.856895,0.0695349,0.38144401,51.8008,06/05.0/2020,2000,g 10.0,4.0
# From MPEC 2019-TG9
160P/LINEAR,e,15.6157,333.3666,12.6565,3.771984,0.1345394,0.52614051,24.9845,06/05.0/2020,2000,g 15.5,2.0
# From MPC 75721
161P/Hartley-IRAS,e,95.7386,1.4610,46.9175,7.727324,0.0458839,0.83451426,251.3427,06/05.0/2020,2000,g  8.5,6.0
# From MPEC 2020-HN5
162P/Siding Spring,e,27.5544,30.9218,357.1148,3.091287,0.1813406,0.58296456,326.3062,06/05.0/2020,2000,g 12.0,4.0
# From MPEC 2020-HN5
163P/NEAT,e,12.7079,102.0920,349.6698,3.769819,0.1346552,0.45186008,41.0484,06/05.0/2020,2000,g 14.5,4.0
# From MPC106349
164P/Christensen,e,16.2533,88.3054,325.8599,3.658306,0.1408588,0.53965692,103.6348,06/05.0/2020,2000,g 11.0,4.0
# From MPC 75721
165P/LINEAR,e,15.8993,0.7540,126.2260,17.90360,0.0130105,0.61475257,95.2586,06/05.0/2020,2000,g 11.5,2.0
# From MPC 75722
166P/NEAT,e,15.3615,64.5029,321.4544,13.83251,0.0191581,0.38203942,126.5523,06/05.0/2020,2000,g  5.5,4.0
# From MPC 75722
167P/CINEOS,e,19.1214,295.6526,344.1663,16.18652,0.0151347,0.27305045,105.4924,06/05.0/2020,2000,g  9.5,2.0
# From MPC102101
168P/Hergenrother,e,21.6128,355.4632,14.9912,3.581900,0.1453898,0.62067375,44.3196,06/05.0/2020,2000,g 15.5,4.0
# From MPEC 2015-M77
169P/NEAT,e,11.2957,176.0891,218.0682,2.601437,0.2349005,0.76796080,180.3105,06/05.0/2020,2000,g  9.0,4.0
# From MPC 89012
170P/Christensen,e,10.1250,142.9209,225.6434,4.198227,0.1145791,0.30340828,239.6020,06/05.0/2020,2000,g 12.0,4.0
# From MPC102102
171P/Spahr,e,21.9336,101.6973,347.1193,3.556572,0.1469456,0.50167198,74.7091,06/05.0/2020,2000,g 13.5,4.0
# From MPEC 2019-VB6
172P/Yeung,e,11.2330,30.8969,209.3749,4.210546,0.1140766,0.20615000,134.5172,06/05.0/2020,2000,g 13.0,4.0
# From MPEC 2020-HN5
173P/Mueller,e,16.4973,100.4007,29.3549,5.700767,0.0724109,0.26051655,319.3717,06/05.0/2020,2000,g  7.5,4.0
# From MPC 92985
174P/Echeclus,e,4.3431,173.2629,162.9145,10.70328,0.0281468,0.45707044,52.6295,06/05.0/2020,2000,g  9.4,2.0
# From MPC114608
175P/Hergenrother,e,6.0776,123.5280,56.2488,3.429385,0.1551957,0.43235259,38.5008,06/05.0/2020,2000,g 14.0,4.0
# From MPC 89015
176P/LINEAR,e,0.2348,345.8880,35.1385,3.193154,0.1727326,0.19296806,204.1830,06/05.0/2020,2000,g 15.1,2.0
# From MPC 75723
177P/Barnard,e,31.3353,272.3544,60.1564,24.37936,0.0081879,0.95511375,41.1697,06/05.0/2020,2000,g 15.0,4.0
# From MPC105242
178P/Hug-Bell,e,11.0897,102.8742,297.7846,3.630139,0.1425014,0.48176278,354.0708,06/05.0/2020,2000,g 13.5,4.0
# From MPC 75723
179P/Jedicke,e,19.8988,115.5256,296.5046,5.942960,0.0680299,0.30614760,310.9102,06/05.0/2020,2000,g  2.5,8.0
# From MPC100284
180P/NEAT,e,16.8683,84.5567,94.8944,3.861126,0.1299072,0.35335066,212.8403,06/05.0/2020,2000,g 11.0,4.0
# From MPC 89012
181P/Shoemaker-Levy,e,17.4857,35.4115,336.2536,3.870958,0.1294125,0.70035964,284.5665,06/05.0/2020,2000,g 11.5,4.0
# From MPEC 2014-J10
182P/LONEOS,e,16.2353,72.7223,53.8257,2.956336,0.1938981,0.66161327,222.9187,06/05.0/2020,2000,g 18.0,4.0
# From MPC110085
183P/Korlevic-Juric,e,18.6779,5.3344,163.8973,4.518863,0.1026031,0.13969499,94.5267,06/05.0/2020,2000,g 12.5,2.0
# From MPC105242
184P/Lovas,e,4.5727,173.2609,186.4234,3.795037,0.1333153,0.55118873,340.9132,06/05.0/2020,2000,g 13.5,4.0
# From MPC109593
185P/Petriew,e,13.9975,214.0959,181.8848,3.099562,0.1806149,0.69888481,155.2431,06/05.0/2020,2000,g 15.0,4.0
# From MPC100284
186P/Garradd,e,28.5158,326.8016,283.9560,5.012272,0.0878319,0.12439796,34.9281,06/05.0/2020,2000,g  7.5,4.0
# From MPC104795
187P/LINEAR,e,13.6347,109.9236,132.2227,4.573951,0.1007551,0.15244527,75.4283,06/05.0/2020,2000,g  9.0,4.0
# From MPC106349
188P/LINEAR-Mueller,e,10.5195,358.9561,26.5916,4.376370,0.1076547,0.41517494,129.6326,06/05.0/2020,2000,g 11.5,4.0
# From MPC106349
189P/NEAT,e,20.0743,281.7413,16.2520,2.947271,0.1947933,0.58872067,201.3134,06/05.0/2020,2000,g 19.0,4.0
# From MPC 75724
190P/Mueller,e,2.1741,335.5755,50.2823,4.235923,0.1130530,0.52074102,171.8007,06/05.0/2020,2000,g 13.0,4.0
# From MPC 92277
191P/McNaught,e,8.8440,98.2405,283.9146,3.639226,0.1419680,0.38655095,319.1391,06/05.0/2020,2000,g 13.0,4.0
# From MPC 75724
192P/Shoemaker-Levy,e,24.5335,51.6448,312.9025,6.478756,0.0597677,0.77276354,273.3345,06/05.0/2020,2000,g 15.0,4.0
# From MPC 92277
193P/LINEAR-NEAT,e,10.6868,335.1918,8.2529,3.575679,0.1457693,0.39403230,294.8796,06/05.0/2020,2000,g 14.0,4.0
# From MPC 98566
194P/LINEAR,e,11.1798,351.5923,130.7626,3.986374,0.1238332,0.57777558,192.6783,06/05.0/2020,2000,g 16.0,4.0
# From MPC 75724
195P/Hill,e,36.3411,243.0990,249.4764,6.498289,0.0594984,0.31327286,248.0813,06/05.0/2020,2000,g  8.5,4.0
# From MPC 92985
196P/Tichy,e,19.3012,24.2060,12.3170,3.797806,0.1331695,0.42862524,243.1720,06/05.0/2020,2000,g 13.5,4.0
# From MPC 94676
197P/LINEAR,e,25.5488,66.3943,188.7348,2.867264,0.2030030,0.62992044,174.1948,06/05.0/2020,2000,g 16.5,2.0
# From NK 1596
198P/ODAS,e,1.3386,358.2504,69.2597,3.600571,0.1442604,0.44311203,77.7876,06/05.0/2020,2000,g  9.0,4.0
# From MPC 75725
199P/Shoemaker,e,24.9355,92.3996,191.5721,5.898417,0.0688020,0.50607956,280.2919,06/05.0/2020,2000,g 10.0,4.0
# From MPC118098
200P/Larsen,e,12.1043,234.8036,134.0055,4.937247,0.0898415,0.33215913,28.0587,06/05.0/2020,2000,g  9.0,4.0
# From MPC 93588
201P/LONEOS,e,5.7363,19.9125,41.3058,3.360059,0.1600235,0.63763195,303.1206,06/05.0/2020,2000,g 14.0,4.0
# From MPC103849
202P/Scotti,e,2.0281,181.9844,275.0289,3.989536,0.1236860,0.28613205,183.0915,06/05.0/2020,2000,g 13.5,4.0
# From MPEC 2019-TG9
203P/Korlevic,e,2.9734,290.3487,154.8660,4.671057,0.0976296,0.31498397,8.9834,06/05.0/2020,2000,g 14.5,2.0
# From MPC 98566
204P/LINEAR-NEAT,e,6.6386,108.8415,354.9353,3.628249,0.1426128,0.48181060,232.1645,06/05.0/2020,2000,g 14.0,4.0
# From MPC 98566
205P/Giacobini,e,15.3010,179.5995,154.1845,3.542995,0.1477911,0.56782076,273.1726,06/05.0/2020,2000,g 13.0,4.0
# From MPC 75725
206P/Barnard-Boattini,e,33.6306,202.3682,189.4359,3.488572,0.1512630,0.55144315,318.7863,06/05.0/2020,2000,g 19.0,4.0
# From MPC 75725
207P/NEAT,e,10.1506,199.5789,271.9726,3.865050,0.1297094,0.76013965,186.3468,06/05.0/2020,2000,g 16.0,4.0
# From MPC101100
208P/McMillan,e,4.4090,36.3669,310.3874,4.047323,0.1210465,0.37327022,173.5079,06/05.0/2020,2000,g 12.5,4.0
# From MPC 90771
209P/LINEAR,e,21.2582,62.7665,152.4859,2.960433,0.1934956,0.67324082,69.3142,06/05.0/2020,2000,g 17.0,2.0
# From MPC105242
210P/Christensen,e,10.2619,93.8354,345.9084,3.165813,0.1749751,0.83322182,10.1620,06/05.0/2020,2000,g 13.5,4.0
# From MPC 96868
211P/Hill,e,18.9216,117.1387,4.1349,3.548872,0.1474241,0.34245184,234.3854,06/05.0/2020,2000,g 12.5,4.0
# From MPC104795
212P/NEAT,e,22.6154,98.6780,14.2514,3.881455,0.1288879,0.58917968,175.8704,06/05.0/2020,2000,g 17.0,2.0
# From MPC114608
213P/Van Ness,e,10.3823,311.3001,5.6009,3.348252,0.1608707,0.40808373,158.3071,06/05.0/2020,2000,g 10.5,4.0
# From MPC 92986
214P/LINEAR,e,15.1862,348.2618,190.2874,3.615904,0.1433438,0.48600341,239.1100,06/05.0/2020,2000,g 13.0,4.0
# From MPC118098
215P/NEAT,e,10.5814,56.6837,262.0674,4.327920,0.1094675,0.16707494,21.8697,06/05.0/2020,2000,g 11.0,4.0
# From MPC100284
216P/LINEAR,e,9.0512,359.8199,151.3730,3.870160,0.1294526,0.44552726,189.9425,06/05.0/2020,2000,g 13.0,4.0
# From MPC108598
217P/LINEAR,e,12.8641,125.4763,246.8494,3.951862,0.1254589,0.68822596,132.2584,06/05.0/2020,2000,g 12.0,4.0
# From MPC105242
218P/LINEAR,e,2.7254,175.9762,59.7809,3.094206,0.1810841,0.62189583,338.1300,06/05.0/2020,2000,g 16.0,4.0
# From MPC100284
219P/LINEAR,e,11.5292,231.0001,107.3546,3.651034,0.1412799,0.35351490,169.4880,06/05.0/2020,2000,g 11.0,4.0
# From MPEC 2020-HN5
220P/McNaught,e,8.1279,150.1087,180.5517,3.115845,0.1792009,0.50185031,326.1903,06/05.0/2020,2000,g 15.0,4.0
# From MPC 93589
221P/LINEAR,e,11.4261,229.7247,40.0381,3.457858,0.1532828,0.49283813,274.0198,06/05.0/2020,2000,g 14.5,4.0
# From MPC 92277
222P/LINEAR,e,5.0948,6.7976,346.2271,2.899352,0.1996423,0.71438957,73.0523,06/05.0/2020,2000,g 20.0,4.0
# From MPEC 2020-HN5
223P/Skiff,e,27.0164,346.7761,37.8212,4.159121,0.1161988,0.41565952,57.4866,06/05.0/2020,2000,g 12.0,4.0
# From MPC 75727
224P/LINEAR-NEAT,e,13.3253,40.3591,16.8012,3.437018,0.1546790,0.40860458,229.0225,06/05.0/2020,2000,g 15.5,4.0
# From MPC 75727
225P/LINEAR,e,21.3481,14.1832,3.8676,3.651148,0.1412732,0.63758606,196.1598,06/05.0/2020,2000,g 18.0,4.0
# From MPC106349
226P/Pigott-LINEAR-Kowalski,e,44.0065,54.0053,341.0540,3.767962,0.1347548,0.52816114,184.6430,06/05.0/2020,2000,g 12.5,4.0
# From MPC102956
227P/Catalina-LINEAR,e,6.5093,49.4523,90.1159,3.570749,0.1460714,0.50554771,157.3549,06/05.0/2020,2000,g 16.5,2.0
# From MPEC 2020-HN5
228P/LINEAR,e,7.9098,30.9857,115.2942,4.173738,0.1155889,0.17679633,9.9836,06/05.0/2020,2000,g 14.5,2.0
# From MPC106349
229P/Gibbs,e,26.0850,157.8985,223.9834,3.931555,0.1264322,0.37647020,140.5144,06/05.0/2020,2000,g 13.0,4.0
# From MPC110497
230P/LINEAR,e,15.5175,107.0191,313.7038,3.446751,0.1540243,0.54910342,259.7395,06/05.0/2020,2000,g 13.0,4.0
# From MPC114608
231P/LINEAR-NEAT,e,12.3342,133.0245,42.8676,4.018399,0.1223558,0.24764131,43.5869,06/05.0/2020,2000,g 14.5,2.0
# From MPC112394
232P/Hill,e,14.6309,56.0217,53.4924,4.482712,0.1038467,0.33430093,44.2111,06/05.0/2020,2000,g 11.5,4.0
# From MPC 92986
